[{"OBJECT_NAME":"STARLINK-32121","OBJECT_ID":"2024-131K","EPOCH":"2026-03-09T06:30:06.932448","MEAN_MOTION":15.3018887,"ECCENTRICITY":0.00014702,"INCLINATION":53.1616,"RA_OF_ASC_NODE":54.4383,"ARG_OF_PERICENTER":85.7966,"MEAN_ANOMALY":274.3203,"EPHEMERIS_TYPE":0,"CLASSIFICATION_TYPE":"U","NORAD_CAT_ID":60264,"ELEMENT_SET_NO":999,"REV_AT_EPOCH":9170,"BSTAR":-4.8616436e-5,"MEAN_MOTION_DOT":-1.798e-5,"MEAN_MOTION_DDOT":0},{"OBJECT_NAME":"OBJECT F","OBJECT_ID":"2021-022F","EPOCH":"2026-03-09T23:37:37.165152","MEAN_MOTION":15.31317672,"ECCENTRICITY":0.00120882,"INCLINATION":97.3982,"RA_OF_ASC_NODE":329.8375,"ARG_OF_PERICENTER":85.9268,"MEAN_ANOMALY":274.3355,"EPHEMERIS_TYPE":0,"CLASSIFICATION_TYPE":"U","NORAD_CAT_ID":47937,"ELEMENT_SET_NO":999,"REV_AT_EPOCH":27452,"BSTAR":0.00038690553,"MEAN_MOTION_DOT":0.00011656,"MEAN_MOTION_DDOT":0}]
